{"features":[{"geometry":{"coordinates":[[[[-79.110352,8.209814],[-79.127539,8.251855],[-79.096289,8.29541],[-79.085303,8.295801],[-79.06543,8.254199],[-79.110352,8.209814]]],[[[-78.957422,8.350586],[-78.960596,8.43584],[-78.916016,8.458252],[-78.883252,8.460254],[-78.856152,8.448242],[-78.83916,8.3479],[-78.853223,8.302441],[-78.89834,8.274268],[-78.918115,8.231934],[-78.964941,8.32627],[-78.957422,8.350586]]],[[[-77.354289,7.718531],[-77.395,7.6812],[-77.417572,7.656131],[-77.538281,7.56626],[-77.586572,7.543066],[-77.618604,7.564551],[-77.658594,7.634619],[-77.706348,7.691211],[-77.732031,7.710938],[-77.746924,7.711865],[-77.761914,7.698828],[-77.76875,7.668066],[-77.743896,7.536963],[-77.764697,7.483691],[-77.82832,7.442822],[-77.901172,7.229346],[-77.929785,7.256348],[-78.170117,7.543799],[-78.378223,7.899902],[-78.421582,8.060986],[-78.367627,8.070557],[-78.31543,8.066943],[-78.287354,8.091797],[-78.254883,8.138623],[-78.281201,8.247559],[-78.180029,8.330273],[-78.141895,8.386084],[-78.113867,8.37959],[-78.047754,8.284766],[-77.95166,8.230273],[-77.833643,8.151172],[-77.760547,8.133252],[-77.85293,8.216211],[-78.0125,8.325391],[-78.057178,8.397119],[-78.099463,8.496973],[-78.161816,8.453711],[-78.190771,8.417334],[-78.223047,8.396631],[-78.251123,8.421436],[-78.256104,8.453711],[-78.350146,8.46001],[-78.374316,8.489258],[-78.399219,8.505664],[-78.387891,8.443408],[-78.369385,8.404932],[-78.379297,8.358594],[-78.409863,8.355322],[-78.436035,8.40332],[-78.469434,8.44668],[-78.514062,8.628174],[-78.620898,8.713721],[-78.669824,8.742188],[-78.710205,8.75293],[-78.769678,8.811084],[-78.848242,8.842187],[-78.955176,8.93252],[-79.086377,8.997168],[-79.24668,9.020068],[-79.441504,9.006006],[-79.50708,8.970068],[-79.55166,8.924463],[-79.565795,8.909995],[-79.79163,9.235197],[-79.892054,9.367757],[-79.855078,9.378076],[-79.723096,9.479297],[-79.652246,9.558203],[-79.577295,9.597852],[-79.355469,9.569238],[-79.211621,9.531934],[-79.112256,9.536768],[-79.016699,9.510449],[-78.975,9.452979],[-78.931641,9.428467],[-78.696924,9.434766],[-78.504346,9.406299],[-78.082764,9.236279],[-77.830811,9.068115],[-77.697217,8.889453],[-77.374219,8.658301],[-77.393066,8.644678],[-77.44834,8.565869],[-77.478516,8.498437],[-77.407275,8.427246],[-77.385889,8.35166],[-77.345508,8.269531],[-77.282617,8.187061],[-77.212305,8.033887],[-77.195996,7.972461],[-77.215967,7.93252],[-77.282959,7.908154],[-77.345605,7.836523],[-77.362744,7.749072],[-77.354289,7.718531]]]],"type":"MultiPolygon"},"id":"panama-observed-land-229-289","properties":{"coordinateFrame":"WGS84-reference-coordinates","correctionFeatureId":"panama-observed-land-229-289","geometryReferenceAgeMa":0,"plateId":229,"sourceClass":"natural-earth-observed-modern-land","sourceFeatureId":"GPlates-2d916a07-b2ba-4953-a1e8-49bedd5fac8e","sourceOrder":289,"surfaceClass":"land","validTimeMa":{"oldest":0,"youngest":0}},"type":"Feature"},{"geometry":{"coordinates":[[[-81.671436,7.523438],[-81.710449,7.485547],[-81.694727,7.425],[-81.613428,7.380176],[-81.609546,7.362075],[-81.726622,7.353733],[-81.770117,7.370361],[-81.852051,7.45332],[-81.858594,7.480176],[-81.856934,7.507666],[-81.812158,7.592383],[-81.752295,7.621631],[-81.72876,7.621191],[-81.671436,7.523438]]],"type":"Polygon"},"id":"panama-observed-land-911-532","properties":{"coordinateFrame":"WGS84-reference-coordinates","correctionFeatureId":"panama-observed-land-911-532","geometryReferenceAgeMa":0,"plateId":911,"sourceClass":"natural-earth-observed-modern-land","sourceFeatureId":"GPlates-6e16f4f2-4864-457a-91d9-a49a937fbc3c","sourceOrder":532,"surfaceClass":"land","validTimeMa":{"oldest":0,"youngest":0}},"type":"Feature"},{"geometry":{"coordinates":[[[[-80.788939,7.236377],[-80.769536,7.226891],[-80.760631,7.227933],[-80.758499,7.226891],[-80.546269,7.251726],[-80.666699,7.225684],[-80.845557,7.220068],[-80.854032,7.228759],[-80.788939,7.236377]]],[[[-81.609546,7.362075],[-81.603271,7.332812],[-81.658105,7.327539],[-81.726622,7.353733],[-81.609546,7.362075]]]],"type":"MultiPolygon"},"id":"panama-observed-land-911-533","properties":{"coordinateFrame":"WGS84-reference-coordinates","correctionFeatureId":"panama-observed-land-911-533","geometryReferenceAgeMa":0,"plateId":911,"sourceClass":"natural-earth-observed-modern-land","sourceFeatureId":"GPlates-e16723c1-9afc-4d4f-abc8-61f2ca910101","sourceOrder":533,"surfaceClass":"land","validTimeMa":{"oldest":0,"youngest":0}},"type":"Feature"},{"geometry":{"coordinates":[[[[-79.750439,8.595508],[-80.125781,8.349658],[-80.200098,8.313965],[-80.368701,8.28877],[-80.407568,8.262451],[-80.458984,8.213867],[-80.465869,8.139941],[-80.458105,8.077051],[-80.409131,8.028564],[-80.365576,7.997998],[-80.260937,7.85166],[-80.075195,7.667041],[-80.040039,7.599805],[-80.01123,7.500049],[-80.067285,7.453223],[-80.110596,7.433447],[-80.287305,7.425635],[-80.348242,7.385693],[-80.372949,7.324658],[-80.438867,7.274951],[-80.546269,7.251726],[-80.758499,7.226891],[-80.760631,7.227933],[-80.769536,7.226891],[-80.788939,7.236377],[-80.854032,7.228759],[-80.901221,7.277148],[-80.914648,7.4375],[-81.035107,7.711133],[-81.063867,7.899756],[-81.093945,7.876318],[-81.157812,7.854395],[-81.179395,7.80752],[-81.195459,7.668408],[-81.219043,7.620947],[-81.268408,7.625488],[-81.36958,7.675293],[-81.50415,7.721191],[-81.675684,8.015918],[-81.694287,8.071387],[-81.727637,8.137549],[-81.860254,8.16543],[-81.973291,8.215088],[-82.096729,8.222754],[-82.100565,8.221057],[-82.101461,8.238519],[-82.137961,8.950252],[-82.139642,8.983018],[-82.133301,8.980078],[-82.077881,8.934863],[-81.894141,8.956104],[-81.826416,8.944092],[-81.780225,8.957227],[-81.831494,9.045605],[-81.900146,9.111035],[-81.894482,9.14043],[-81.842383,9.118701],[-81.802588,9.074121],[-81.712207,9.018945],[-81.545605,8.827002],[-81.354785,8.780566],[-81.20376,8.786719],[-81.063086,8.812646],[-80.838672,8.887207],[-80.676465,9.021875],[-80.546875,9.081934],[-80.1271,9.209912],[-79.977979,9.343701],[-79.915088,9.361328],[-79.892054,9.367757],[-79.79163,9.235197],[-79.565795,8.909995],[-79.572363,8.903271],[-79.687451,8.850977],[-79.731055,8.775342],[-79.758545,8.711572],[-79.815918,8.639209],[-79.750439,8.595508]]],[[[-82.233186,9.1653],[-82.250863,9.198553],[-82.204883,9.21543],[-82.188135,9.191748],[-82.200684,9.168115],[-82.224888,9.14969],[-82.233186,9.1653]]],[[[-82.259424,9.430273],[-82.233496,9.380713],[-82.244434,9.334082],[-82.321729,9.418115],[-82.275781,9.431885],[-82.259424,9.430273]]],[[[-82.370801,9.428564],[-82.369766,9.422232],[-82.374614,9.431352],[-82.370801,9.428564]]]],"type":"MultiPolygon"},"id":"panama-observed-land-230-798","properties":{"coordinateFrame":"WGS84-reference-coordinates","correctionFeatureId":"panama-observed-land-230-798","geometryReferenceAgeMa":0,"plateId":230,"sourceClass":"natural-earth-observed-modern-land","sourceFeatureId":"GPlates-21e07ac6-0662-48ac-bf9d-f2a7fc64fc76","sourceOrder":798,"surfaceClass":"land","validTimeMa":{"oldest":0,"youngest":0}},"type":"Feature"},{"geometry":{"coordinates":[[[[-82.867528,8.257417],[-82.81008,8.284048],[-82.866113,8.246338],[-82.854346,8.099512],[-82.879346,8.070654],[-82.882733,8.121963],[-82.867528,8.257417]]],[[[-82.101461,8.238519],[-82.100565,8.221057],[-82.142405,8.202548],[-82.137278,8.237806],[-82.101461,8.238519]]],[[[-82.220389,8.35925],[-82.157361,8.338944],[-82.214194,8.3385],[-82.223314,8.229818],[-82.224316,8.230371],[-82.235449,8.311035],[-82.25779,8.304788],[-82.220389,8.35925]]],[[[-82.271784,8.300875],[-82.364844,8.274854],[-82.475334,8.2832],[-82.285361,8.344361],[-82.271784,8.300875]]],[[[-82.759663,8.307419],[-82.718083,8.326694],[-82.688871,8.320278],[-82.759663,8.307419]]],[[[-82.139642,8.983018],[-82.137961,8.950252],[-82.244917,8.998306],[-82.272528,9.144194],[-82.233186,9.1653],[-82.224888,9.14969],[-82.235449,9.14165],[-82.244189,9.031494],[-82.139642,8.983018]]],[[[-82.363401,9.294174],[-82.339746,9.20918],[-82.33257,9.207201],[-82.354528,9.208444],[-82.398361,9.288944],[-82.363401,9.294174]]],[[[-82.372615,9.327281],[-82.389333,9.344639],[-82.364697,9.391198],[-82.363184,9.381934],[-82.375391,9.337256],[-82.372615,9.327281]]],[[[-82.382618,9.437201],[-82.449111,9.444472],[-82.564864,9.572457],[-82.563574,9.57666],[-82.500342,9.523242],[-82.382618,9.437201]]]],"type":"MultiPolygon"},"id":"panama-observed-land-231-2032","properties":{"coordinateFrame":"WGS84-reference-coordinates","correctionFeatureId":"panama-observed-land-231-2032","geometryReferenceAgeMa":0,"plateId":231,"sourceClass":"natural-earth-observed-modern-land","sourceFeatureId":"GPlates-37c480a5-4c44-4641-8411-7614f5185976","sourceOrder":2032,"surfaceClass":"land","validTimeMa":{"oldest":0,"youngest":0}},"type":"Feature"}],"type":"FeatureCollection"}
