{
 "features": [
  {
   "geometry": {
    "coordinates": [
     [
      [
       5.31,
       60.5
      ],
      [
       3.5742,
       61.0
      ],
      [
       2.2088,
       61.5
      ],
      [
       0.591,
       62.0
      ],
      [
       1.7609,
       62.5
      ],
      [
       2.2577,
       63.0
      ],
      [
       3.2412,
       63.5
      ],
      [
       4.8412,
       64.0
      ],
      [
       5.7576,
       64.5
      ],
      [
       6.3801,
       65.0
      ],
      [
       6.8084,
       65.5
      ],
      [
       7.0223,
       66.0
      ],
      [
       7.4316,
       66.5
      ],
      [
       8.1059,
       67.0
      ],
      [
       8.8549,
       67.5
      ],
      [
       9.3982,
       68.0
      ],
      [
       9.2155,
       68.5
      ],
      [
       8.8463,
       69.0
      ],
      [
       10.9101,
       69.5
      ],
      [
       12.3564,
       70.0
      ],
      [
       15.4547,
       70.5
      ],
      [
       18.5342,
       71.0
      ],
      [
       25.44,
       71.5
      ],
      [
       25.44,
       71.5
      ],
      [
       14.3631,
       71.0
      ],
      [
       11.3865,
       70.5
      ],
      [
       8.386,
       70.0
      ],
      [
       7.0325,
       69.5
      ],
      [
       5.0569,
       69.0
      ],
      [
       5.5103,
       68.5
      ],
      [
       5.7732,
       68.0
      ],
      [
       5.3064,
       67.5
      ],
      [
       4.6304,
       67.0
      ],
      [
       4.026,
       66.5
      ],
      [
       3.6836,
       66.0
      ],
      [
       3.5338,
       65.5
      ],
      [
       3.1668,
       65.0
      ],
      [
       2.6033,
       64.5
      ],
      [
       1.7435,
       64.0
      ],
      [
       0.1978,
       63.5
      ],
      [
       -0.7335,
       63.0
      ],
      [
       -1.18,
       62.5
      ],
      [
       -2.3016,
       62.0
      ],
      [
       0.3115,
       61.5
      ],
      [
       2.6405,
       61.0
      ],
      [
       5.31,
       60.5
      ],
      [
       5.31,
       60.5
      ]
     ]
    ],
    "type": "Polygon"
   },
   "id": "caledonides-baltica-distal-margin-cot-plate-302",
   "properties": {
    "areaKm2": 169559.4,
    "birthIntervalMa": [
     600.0,
     540.0
    ],
    "collision": "caledonides",
    "correctionFeatureId": "caledonides-baltica-distal-margin-cot-plate-302",
    "datumOffsetKm": [
     250.0,
     401.0
    ],
    "margin": "baltica",
    "plateId": 302,
    "restoredWidthKm": 151.0,
    "surfaceEvidence": "unknown",
    "validTimeMa": {
     "oldest": 600.0,
     "youngest": 430.0,
     "youngestExclusive": true
    }
   },
   "type": "Feature"
  },
  {
   "geometry": {
    "coordinates": [
     [
      [
       5.31,
       60.5
      ],
      [
       4.3162,
       61.0
      ],
      [
       3.7166,
       61.5
      ],
      [
       2.8897,
       62.0
      ],
      [
       4.0981,
       62.5
      ],
      [
       4.6348,
       63.0
      ],
      [
       5.6598,
       63.5
      ],
      [
       7.303,
       64.0
      ],
      [
       8.2644,
       64.5
      ],
      [
       8.9336,
       65.0
      ],
      [
       9.4108,
       65.5
      ],
      [
       9.6756,
       66.0
      ],
      [
       10.138,
       66.5
      ],
      [
       10.8679,
       67.0
      ],
      [
       11.675,
       67.5
      ],
      [
       12.2791,
       68.0
      ],
      [
       12.1601,
       68.5
      ],
      [
       11.8577,
       69.0
      ],
      [
       13.9916,
       69.5
      ],
      [
       15.5117,
       70.0
      ],
      [
       18.6876,
       70.5
      ],
      [
       21.849,
       71.0
      ],
      [
       25.44,
       71.5
      ],
      [
       25.44,
       71.5
      ],
      [
       18.5342,
       71.0
      ],
      [
       15.4547,
       70.5
      ],
      [
       12.3564,
       70.0
      ],
      [
       10.9101,
       69.5
      ],
      [
       8.8463,
       69.0
      ],
      [
       9.2155,
       68.5
      ],
      [
       9.3982,
       68.0
      ],
      [
       8.8549,
       67.5
      ],
      [
       8.1059,
       67.0
      ],
      [
       7.4316,
       66.5
      ],
      [
       7.0223,
       66.0
      ],
      [
       6.8084,
       65.5
      ],
      [
       6.3801,
       65.0
      ],
      [
       5.7576,
       64.5
      ],
      [
       4.8412,
       64.0
      ],
      [
       3.2412,
       63.5
      ],
      [
       2.2577,
       63.0
      ],
      [
       1.7609,
       62.5
      ],
      [
       0.591,
       62.0
      ],
      [
       2.2088,
       61.5
      ],
      [
       3.5742,
       61.0
      ],
      [
       5.31,
       60.5
      ],
      [
       5.31,
       60.5
      ]
     ]
    ],
    "type": "Polygon"
   },
   "id": "caledonides-baltica-outer-shelf-plate-302",
   "properties": {
    "areaKm2": 133880.0,
    "birthIntervalMa": [
     600.0,
     540.0
    ],
    "collision": "caledonides",
    "correctionFeatureId": "caledonides-baltica-outer-shelf-plate-302",
    "datumOffsetKm": [
     130.0,
     250.0
    ],
    "margin": "baltica",
    "plateId": 302,
    "restoredWidthKm": 120.0,
    "surfaceEvidence": "unknown",
    "validTimeMa": {
     "oldest": 600.0,
     "youngest": 420.0,
     "youngestExclusive": true
    }
   },
   "type": "Feature"
  },
  {
   "geometry": {
    "coordinates": [
     [
      [
       5.31,
       60.5
      ],
      [
       5.12,
       61.0
      ],
      [
       5.35,
       61.5
      ],
      [
       5.38,
       62.0
      ],
      [
       6.63,
       62.5
      ],
      [
       7.21,
       63.0
      ],
      [
       8.28,
       63.5
      ],
      [
       9.97,
       64.0
      ],
      [
       10.98,
       64.5
      ],
      [
       11.7,
       65.0
      ],
      [
       12.23,
       65.5
      ],
      [
       12.55,
       66.0
      ],
      [
       13.07,
       66.5
      ],
      [
       13.86,
       67.0
      ],
      [
       14.73,
       67.5
      ],
      [
       15.4,
       68.0
      ],
      [
       15.35,
       68.5
      ],
      [
       15.12,
       69.0
      ],
      [
       17.33,
       69.5
      ],
      [
       18.93,
       70.0
      ],
      [
       22.19,
       70.5
      ],
      [
       25.44,
       71.0
      ],
      [
       25.44,
       71.5
      ],
      [
       25.44,
       71.5
      ],
      [
       21.849,
       71.0
      ],
      [
       18.6876,
       70.5
      ],
      [
       15.5117,
       70.0
      ],
      [
       13.9916,
       69.5
      ],
      [
       11.8577,
       69.0
      ],
      [
       12.1601,
       68.5
      ],
      [
       12.2791,
       68.0
      ],
      [
       11.675,
       67.5
      ],
      [
       10.8679,
       67.0
      ],
      [
       10.138,
       66.5
      ],
      [
       9.6756,
       66.0
      ],
      [
       9.4108,
       65.5
      ],
      [
       8.9336,
       65.0
      ],
      [
       8.2644,
       64.5
      ],
      [
       7.303,
       64.0
      ],
      [
       5.6598,
       63.5
      ],
      [
       4.6348,
       63.0
      ],
      [
       4.0981,
       62.5
      ],
      [
       2.8897,
       62.0
      ],
      [
       3.7166,
       61.5
      ],
      [
       4.3162,
       61.0
      ],
      [
       5.31,
       60.5
      ],
      [
       5.31,
       60.5
      ]
     ]
    ],
    "type": "Polygon"
   },
   "id": "caledonides-baltica-middle-allochthon-root-plate-302",
   "properties": {
    "areaKm2": 144611.5,
    "birthIntervalMa": [
     600.0,
     540.0
    ],
    "collision": "caledonides",
    "correctionFeatureId": "caledonides-baltica-middle-allochthon-root-plate-302",
    "datumOffsetKm": [
     0.0,
     130.0
    ],
    "margin": "baltica",
    "plateId": 302,
    "restoredWidthKm": 130.0,
    "surfaceEvidence": "unknown",
    "validTimeMa": {
     "oldest": 600.0,
     "youngest": 405.0,
     "youngestExclusive": true
    }
   },
   "type": "Feature"
  },
  {
   "geometry": {
    "coordinates": [
     [
      [
       -23.26,
       69.5
      ],
      [
       -19.5706,
       70.0
      ],
      [
       -18.7959,
       70.5
      ],
      [
       -18.2477,
       71.0
      ],
      [
       -17.8358,
       71.5
      ],
      [
       -17.5897,
       72.0
      ],
      [
       -18.0393,
       72.5
      ],
      [
       -17.9741,
       73.0
      ],
      [
       -17.1136,
       73.5
      ],
      [
       -15.1973,
       74.0
      ],
      [
       -10.8848,
       74.5
      ],
      [
       -8.8953,
       75.0
      ],
      [
       -5.9482,
       75.5
      ],
      [
       -2.1226,
       76.0
      ],
      [
       -2.87,
       76.5
      ],
      [
       -2.87,
       76.5
      ],
      [
       1.6691,
       76.0
      ],
      [
       -2.2845,
       75.5
      ],
      [
       -5.3511,
       75.0
      ],
      [
       -7.4522,
       74.5
      ],
      [
       -11.8694,
       74.0
      ],
      [
       -13.8838,
       73.5
      ],
      [
       -14.8366,
       73.0
      ],
      [
       -14.9888,
       72.5
      ],
      [
       -14.6213,
       72.0
      ],
      [
       -14.9448,
       71.5
      ],
      [
       -15.4301,
       71.0
      ],
      [
       -16.0478,
       70.5
      ],
      [
       -16.8885,
       70.0
      ],
      [
       -23.26,
       69.5
      ],
      [
       -23.26,
       69.5
      ]
     ]
    ],
    "type": "Polygon"
   },
   "id": "caledonides-laurentia-distal-margin-cot-plate-102",
   "properties": {
    "areaKm2": 73372.6,
    "birthIntervalMa": [
     600.0,
     540.0
    ],
    "collision": "caledonides",
    "correctionFeatureId": "caledonides-laurentia-distal-margin-cot-plate-102",
    "datumOffsetKm": [
     100.0,
     202.0
    ],
    "margin": "laurentia",
    "plateId": 102,
    "restoredWidthKm": 102.0,
    "surfaceEvidence": "unknown",
    "validTimeMa": {
     "oldest": 600.0,
     "youngest": 425.0,
     "youngestExclusive": true
    }
   },
   "type": "Feature"
  },
  {
   "geometry": {
    "coordinates": [
     [
      [
       -23.26,
       69.5
      ],
      [
       -22.2,
       70.0
      ],
      [
       -21.49,
       70.5
      ],
      [
       -21.01,
       71.0
      ],
      [
       -20.67,
       71.5
      ],
      [
       -20.5,
       72.0
      ],
      [
       -21.03,
       72.5
      ],
      [
       -21.05,
       73.0
      ],
      [
       -20.28,
       73.5
      ],
      [
       -18.46,
       74.0
      ],
      [
       -14.25,
       74.5
      ],
      [
       -12.37,
       75.0
      ],
      [
       -9.54,
       75.5
      ],
      [
       -5.84,
       76.0
      ],
      [
       -2.87,
       76.5
      ],
      [
       -2.87,
       76.5
      ],
      [
       -2.1226,
       76.0
      ],
      [
       -5.9482,
       75.5
      ],
      [
       -8.8953,
       75.0
      ],
      [
       -10.8848,
       74.5
      ],
      [
       -15.1973,
       74.0
      ],
      [
       -17.1136,
       73.5
      ],
      [
       -17.9741,
       73.0
      ],
      [
       -18.0393,
       72.5
      ],
      [
       -17.5897,
       72.0
      ],
      [
       -17.8358,
       71.5
      ],
      [
       -18.2477,
       71.0
      ],
      [
       -18.7959,
       70.5
      ],
      [
       -19.5706,
       70.0
      ],
      [
       -23.26,
       69.5
      ],
      [
       -23.26,
       69.5
      ]
     ]
    ],
    "type": "Polygon"
   },
   "id": "caledonides-laurentia-proximal-margin-plate-102",
   "properties": {
    "areaKm2": 72184.4,
    "birthIntervalMa": [
     600.0,
     540.0
    ],
    "collision": "caledonides",
    "correctionFeatureId": "caledonides-laurentia-proximal-margin-plate-102",
    "datumOffsetKm": [
     0.0,
     100.0
    ],
    "margin": "laurentia",
    "plateId": 102,
    "restoredWidthKm": 100.0,
    "surfaceEvidence": "unknown",
    "validTimeMa": {
     "oldest": 600.0,
     "youngest": 410.0,
     "youngestExclusive": true
    }
   },
   "type": "Feature"
  }
 ],
 "type": "FeatureCollection"
}
