{
 "features": [
  {
   "geometry": {
    "coordinates": [
     [
      [
       7.75,
       47.4731
      ],
      [
       8.0,
       47.4331
      ],
      [
       8.25,
       47.5031
      ],
      [
       8.5,
       47.5531
      ],
      [
       8.75,
       47.6031
      ],
      [
       9.0,
       47.7131
      ],
      [
       9.0,
       48.2527
      ],
      [
       8.75,
       48.1427
      ],
      [
       8.5,
       48.0927
      ],
      [
       8.25,
       48.0427
      ],
      [
       8.0,
       47.9727
      ],
      [
       7.75,
       48.0127
      ],
      [
       7.75,
       47.4731
      ]
     ]
    ],
    "type": "Polygon"
   },
   "id": "alps-adria-distal-margin-oct-plate-307",
   "properties": {
    "areaKm2": 5601.2,
    "birthIntervalMa": [
     165.0,
     154.0
    ],
    "collision": "alps",
    "correctionFeatureId": "alps-adria-distal-margin-oct-plate-307",
    "datumOffsetKm": [
     126.0,
     186.0
    ],
    "margin": "adria",
    "plateId": 307,
    "restoredWidthKm": 60.0,
    "surfaceEvidence": "unknown",
    "validTimeMa": {
     "oldest": 165.0,
     "youngest": 35.0,
     "youngestExclusive": true
    }
   },
   "type": "Feature"
  },
  {
   "geometry": {
    "coordinates": [
     [
      [
       8.75,
       47.6031
      ],
      [
       9.0,
       47.7131
      ],
      [
       9.25,
       48.0131
      ],
      [
       9.5,
       48.2131
      ],
      [
       9.75,
       48.3631
      ],
      [
       10.0,
       48.4531
      ],
      [
       10.25,
       48.5131
      ],
      [
       10.5,
       48.6231
      ],
      [
       10.75,
       48.6331
      ],
      [
       11.0,
       48.6631
      ],
      [
       11.25,
       48.6931
      ],
      [
       11.5,
       48.7531
      ],
      [
       11.75,
       48.7931
      ],
      [
       12.0,
       48.8331
      ],
      [
       12.25,
       48.8831
      ],
      [
       12.5,
       48.9531
      ],
      [
       12.75,
       48.9531
      ],
      [
       13.0,
       48.9931
      ],
      [
       13.25,
       49.0031
      ],
      [
       13.5,
       49.0231
      ],
      [
       13.75,
       49.0331
      ],
      [
       14.0,
       49.0531
      ],
      [
       14.25,
       49.0931
      ],
      [
       14.5,
       49.1231
      ],
      [
       14.75,
       49.1231
      ],
      [
       15.0,
       49.1231
      ],
      [
       15.0,
       49.6627
      ],
      [
       14.75,
       49.6627
      ],
      [
       14.5,
       49.6627
      ],
      [
       14.25,
       49.6327
      ],
      [
       14.0,
       49.5927
      ],
      [
       13.75,
       49.5727
      ],
      [
       13.5,
       49.5627
      ],
      [
       13.25,
       49.5427
      ],
      [
       13.0,
       49.5327
      ],
      [
       12.75,
       49.4927
      ],
      [
       12.5,
       49.4927
      ],
      [
       12.25,
       49.4227
      ],
      [
       12.0,
       49.3727
      ],
      [
       11.75,
       49.3327
      ],
      [
       11.5,
       49.2927
      ],
      [
       11.25,
       49.2327
      ],
      [
       11.0,
       49.2027
      ],
      [
       10.75,
       49.1727
      ],
      [
       10.5,
       49.1627
      ],
      [
       10.25,
       49.0527
      ],
      [
       10.0,
       48.9927
      ],
      [
       9.75,
       48.9027
      ],
      [
       9.5,
       48.7527
      ],
      [
       9.25,
       48.5527
      ],
      [
       9.0,
       48.2527
      ],
      [
       8.75,
       48.1427
      ],
      [
       8.75,
       47.6031
      ]
     ]
    ],
    "type": "Polygon"
   },
   "id": "alps-adria-distal-margin-oct-plate-308",
   "properties": {
    "areaKm2": 27364.8,
    "birthIntervalMa": [
     165.0,
     154.0
    ],
    "collision": "alps",
    "correctionFeatureId": "alps-adria-distal-margin-oct-plate-308",
    "datumOffsetKm": [
     126.0,
     186.0
    ],
    "margin": "adria",
    "plateId": 308,
    "restoredWidthKm": 60.0,
    "surfaceEvidence": "unknown",
    "validTimeMa": {
     "oldest": 165.0,
     "youngest": 35.0,
     "youngestExclusive": true
    }
   },
   "type": "Feature"
  },
  {
   "geometry": {
    "coordinates": [
     [
      [
       7.75,
       46.9785
      ],
      [
       8.0,
       46.9385
      ],
      [
       8.25,
       47.0085
      ],
      [
       8.5,
       47.0585
      ],
      [
       8.75,
       47.1085
      ],
      [
       9.0,
       47.2185
      ],
      [
       9.0,
       47.7131
      ],
      [
       8.75,
       47.6031
      ],
      [
       8.5,
       47.5531
      ],
      [
       8.25,
       47.5031
      ],
      [
       8.0,
       47.4331
      ],
      [
       7.75,
       47.4731
      ],
      [
       7.75,
       46.9785
      ]
     ]
    ],
    "type": "Polygon"
   },
   "id": "alps-adria-necking-zone-plate-307",
   "properties": {
    "areaKm2": 5185.0,
    "birthIntervalMa": [
     180.0,
     165.0
    ],
    "collision": "alps",
    "correctionFeatureId": "alps-adria-necking-zone-plate-307",
    "datumOffsetKm": [
     71.0,
     126.0
    ],
    "margin": "adria",
    "plateId": 307,
    "restoredWidthKm": 55.0,
    "surfaceEvidence": "unknown",
    "validTimeMa": {
     "oldest": 180.0,
     "youngest": 19.0,
     "youngestExclusive": true
    }
   },
   "type": "Feature"
  },
  {
   "geometry": {
    "coordinates": [
     [
      [
       8.75,
       47.1085
      ],
      [
       9.0,
       47.2185
      ],
      [
       9.25,
       47.5185
      ],
      [
       9.5,
       47.7185
      ],
      [
       9.75,
       47.8685
      ],
      [
       10.0,
       47.9585
      ],
      [
       10.25,
       48.0185
      ],
      [
       10.5,
       48.1285
      ],
      [
       10.75,
       48.1385
      ],
      [
       11.0,
       48.1685
      ],
      [
       11.25,
       48.1985
      ],
      [
       11.5,
       48.2585
      ],
      [
       11.75,
       48.2985
      ],
      [
       12.0,
       48.3385
      ],
      [
       12.25,
       48.3885
      ],
      [
       12.5,
       48.4585
      ],
      [
       12.75,
       48.4585
      ],
      [
       13.0,
       48.4985
      ],
      [
       13.25,
       48.5085
      ],
      [
       13.5,
       48.5285
      ],
      [
       13.75,
       48.5385
      ],
      [
       14.0,
       48.5585
      ],
      [
       14.25,
       48.5985
      ],
      [
       14.5,
       48.6285
      ],
      [
       14.75,
       48.6285
      ],
      [
       15.0,
       48.6285
      ],
      [
       15.0,
       49.1231
      ],
      [
       14.75,
       49.1231
      ],
      [
       14.5,
       49.1231
      ],
      [
       14.25,
       49.0931
      ],
      [
       14.0,
       49.0531
      ],
      [
       13.75,
       49.0331
      ],
      [
       13.5,
       49.0231
      ],
      [
       13.25,
       49.0031
      ],
      [
       13.0,
       48.9931
      ],
      [
       12.75,
       48.9531
      ],
      [
       12.5,
       48.9531
      ],
      [
       12.25,
       48.8831
      ],
      [
       12.0,
       48.8331
      ],
      [
       11.75,
       48.7931
      ],
      [
       11.5,
       48.7531
      ],
      [
       11.25,
       48.6931
      ],
      [
       11.0,
       48.6631
      ],
      [
       10.75,
       48.6331
      ],
      [
       10.5,
       48.6231
      ],
      [
       10.25,
       48.5131
      ],
      [
       10.0,
       48.4531
      ],
      [
       9.75,
       48.3631
      ],
      [
       9.5,
       48.2131
      ],
      [
       9.25,
       48.0131
      ],
      [
       9.0,
       47.7131
      ],
      [
       8.75,
       47.6031
      ],
      [
       8.75,
       47.1085
      ]
     ]
    ],
    "type": "Polygon"
   },
   "id": "alps-adria-necking-zone-plate-308",
   "properties": {
    "areaKm2": 25342.0,
    "birthIntervalMa": [
     180.0,
     165.0
    ],
    "collision": "alps",
    "correctionFeatureId": "alps-adria-necking-zone-plate-308",
    "datumOffsetKm": [
     71.0,
     126.0
    ],
    "margin": "adria",
    "plateId": 308,
    "restoredWidthKm": 55.0,
    "surfaceEvidence": "unknown",
    "validTimeMa": {
     "oldest": 180.0,
     "youngest": 19.0,
     "youngestExclusive": true
    }
   },
   "type": "Feature"
  },
  {
   "geometry": {
    "coordinates": [
     [
      [
       7.75,
       45.44
      ],
      [
       8.0,
       45.57
      ],
      [
       8.25,
       45.65
      ],
      [
       8.5,
       45.72
      ],
      [
       8.75,
       45.96
      ],
      [
       9.0,
       46.22
      ],
      [
       9.0,
       47.2185
      ],
      [
       8.75,
       47.1085
      ],
      [
       8.5,
       47.0585
      ],
      [
       8.25,
       47.0085
      ],
      [
       8.0,
       46.9385
      ],
      [
       7.75,
       46.9785
      ],
      [
       7.75,
       45.44
      ]
     ]
    ],
    "type": "Polygon"
   },
   "id": "alps-adria-proximal-retrowedge-plate-307",
   "properties": {
    "areaKm2": 13822.6,
    "birthIntervalMa": [
     200.0,
     180.0
    ],
    "collision": "alps",
    "correctionFeatureId": "alps-adria-proximal-retrowedge-plate-307",
    "datumOffsetKm": [
     0.0,
     71.0
    ],
    "margin": "adria",
    "plateId": 307,
    "restoredWidthKm": 71.0,
    "surfaceEvidence": "unknown",
    "validTimeMa": {
     "oldest": 200.0,
     "youngest": 5.0,
     "youngestExclusive": true
    }
   },
   "type": "Feature"
  },
  {
   "geometry": {
    "coordinates": [
     [
      [
       8.75,
       45.96
      ],
      [
       9.0,
       46.22
      ],
      [
       9.25,
       46.56
      ],
      [
       9.5,
       46.89
      ],
      [
       9.75,
       47.22
      ],
      [
       10.0,
       47.31
      ],
      [
       10.25,
       47.37
      ],
      [
       10.5,
       47.48
      ],
      [
       10.75,
       47.49
      ],
      [
       11.0,
       47.52
      ],
      [
       11.25,
       47.55
      ],
      [
       11.5,
       47.61
      ],
      [
       11.75,
       47.65
      ],
      [
       12.0,
       47.69
      ],
      [
       12.25,
       47.74
      ],
      [
       12.5,
       47.69
      ],
      [
       12.75,
       47.59
      ],
      [
       13.0,
       47.49
      ],
      [
       13.25,
       47.39
      ],
      [
       13.5,
       47.28
      ],
      [
       13.75,
       47.18
      ],
      [
       14.0,
       47.07
      ],
      [
       14.25,
       46.97
      ],
      [
       14.5,
       46.86
      ],
      [
       14.75,
       46.75
      ],
      [
       15.0,
       46.63
      ],
      [
       15.0,
       48.6285
      ],
      [
       14.75,
       48.6285
      ],
      [
       14.5,
       48.6285
      ],
      [
       14.25,
       48.5985
      ],
      [
       14.0,
       48.5585
      ],
      [
       13.75,
       48.5385
      ],
      [
       13.5,
       48.5285
      ],
      [
       13.25,
       48.5085
      ],
      [
       13.0,
       48.4985
      ],
      [
       12.75,
       48.4585
      ],
      [
       12.5,
       48.4585
      ],
      [
       12.25,
       48.3885
      ],
      [
       12.0,
       48.3385
      ],
      [
       11.75,
       48.2985
      ],
      [
       11.5,
       48.2585
      ],
      [
       11.25,
       48.1985
      ],
      [
       11.0,
       48.1685
      ],
      [
       10.75,
       48.1385
      ],
      [
       10.5,
       48.1285
      ],
      [
       10.25,
       48.0185
      ],
      [
       10.0,
       47.9585
      ],
      [
       9.75,
       47.8685
      ],
      [
       9.5,
       47.7185
      ],
      [
       9.25,
       47.5185
      ],
      [
       9.0,
       47.2185
      ],
      [
       8.75,
       47.1085
      ],
      [
       8.75,
       45.96
      ]
     ]
    ],
    "type": "Polygon"
   },
   "id": "alps-adria-proximal-retrowedge-plate-308",
   "properties": {
    "areaKm2": 51217.4,
    "birthIntervalMa": [
     200.0,
     180.0
    ],
    "collision": "alps",
    "correctionFeatureId": "alps-adria-proximal-retrowedge-plate-308",
    "datumOffsetKm": [
     0.0,
     71.0
    ],
    "margin": "adria",
    "plateId": 308,
    "restoredWidthKm": 71.0,
    "surfaceEvidence": "unknown",
    "validTimeMa": {
     "oldest": 200.0,
     "youngest": 5.0,
     "youngestExclusive": true
    }
   },
   "type": "Feature"
  },
  {
   "geometry": {
    "coordinates": [
     [
      [
       7.75,
       44.991
      ],
      [
       8.0,
       44.951
      ],
      [
       8.25,
       45.021
      ],
      [
       8.5,
       45.071
      ],
      [
       8.75,
       45.121
      ],
      [
       9.0,
       45.231
      ],
      [
       9.25,
       45.531
      ],
      [
       9.5,
       45.731
      ],
      [
       9.75,
       45.881
      ],
      [
       10.0,
       45.971
      ],
      [
       10.25,
       46.031
      ],
      [
       10.5,
       46.141
      ],
      [
       10.75,
       46.151
      ],
      [
       11.0,
       46.181
      ],
      [
       11.25,
       46.211
      ],
      [
       11.5,
       46.271
      ],
      [
       11.75,
       46.311
      ],
      [
       12.0,
       46.351
      ],
      [
       12.25,
       46.401
      ],
      [
       12.5,
       46.471
      ],
      [
       12.75,
       46.471
      ],
      [
       13.0,
       46.511
      ],
      [
       13.25,
       46.521
      ],
      [
       13.5,
       46.541
      ],
      [
       13.75,
       46.551
      ],
      [
       14.0,
       46.571
      ],
      [
       14.25,
       46.611
      ],
      [
       14.5,
       46.641
      ],
      [
       14.75,
       46.641
      ],
      [
       15.0,
       46.641
      ],
      [
       15.0,
       45.8856
      ],
      [
       14.75,
       45.8856
      ],
      [
       14.5,
       45.8856
      ],
      [
       14.25,
       45.8556
      ],
      [
       14.0,
       45.8156
      ],
      [
       13.75,
       45.7956
      ],
      [
       13.5,
       45.7856
      ],
      [
       13.25,
       45.7656
      ],
      [
       13.0,
       45.7556
      ],
      [
       12.75,
       45.7156
      ],
      [
       12.5,
       45.7156
      ],
      [
       12.25,
       45.6456
      ],
      [
       12.0,
       45.5956
      ],
      [
       11.75,
       45.5556
      ],
      [
       11.5,
       45.5156
      ],
      [
       11.25,
       45.4556
      ],
      [
       11.0,
       45.4256
      ],
      [
       10.75,
       45.3956
      ],
      [
       10.5,
       45.3856
      ],
      [
       10.25,
       45.2756
      ],
      [
       10.0,
       45.2156
      ],
      [
       9.75,
       45.1256
      ],
      [
       9.5,
       44.9756
      ],
      [
       9.25,
       44.7756
      ],
      [
       9.0,
       44.4756
      ],
      [
       8.75,
       44.3656
      ],
      [
       8.5,
       44.3156
      ],
      [
       8.25,
       44.2656
      ],
      [
       8.0,
       44.1956
      ],
      [
       7.75,
       44.2356
      ],
      [
       7.75,
       44.991
      ]
     ]
    ],
    "type": "Polygon"
   },
   "id": "alps-europe-distal-margin-oct-plate-305",
   "properties": {
    "areaKm2": 47301.0,
    "birthIntervalMa": [
     165.0,
     154.0
    ],
    "collision": "alps",
    "correctionFeatureId": "alps-europe-distal-margin-oct-plate-305",
    "datumOffsetKm": [
     -234.0,
     -150.0
    ],
    "margin": "europe",
    "plateId": 305,
    "restoredWidthKm": 84.0,
    "surfaceEvidence": "unknown",
    "validTimeMa": {
     "oldest": 165.0,
     "youngest": 40.0,
     "youngestExclusive": true
    }
   },
   "type": "Feature"
  },
  {
   "geometry": {
    "coordinates": [
     [
      [
       7.75,
       45.3957
      ],
      [
       8.0,
       45.3557
      ],
      [
       8.25,
       45.4257
      ],
      [
       8.5,
       45.4757
      ],
      [
       8.75,
       45.5257
      ],
      [
       9.0,
       45.6357
      ],
      [
       9.25,
       45.9357
      ],
      [
       9.5,
       46.1357
      ],
      [
       9.75,
       46.2857
      ],
      [
       10.0,
       46.3757
      ],
      [
       10.25,
       46.4357
      ],
      [
       10.5,
       46.5457
      ],
      [
       10.75,
       46.5557
      ],
      [
       11.0,
       46.5857
      ],
      [
       11.25,
       46.6157
      ],
      [
       11.5,
       46.6757
      ],
      [
       11.75,
       46.7157
      ],
      [
       12.0,
       46.7557
      ],
      [
       12.25,
       46.8057
      ],
      [
       12.5,
       46.8757
      ],
      [
       12.75,
       46.8757
      ],
      [
       13.0,
       46.9157
      ],
      [
       13.25,
       46.9257
      ],
      [
       13.5,
       46.9457
      ],
      [
       13.75,
       46.9557
      ],
      [
       14.0,
       46.9757
      ],
      [
       14.25,
       47.0157
      ],
      [
       14.5,
       47.0457
      ],
      [
       14.75,
       47.0457
      ],
      [
       15.0,
       47.0457
      ],
      [
       15.0,
       46.641
      ],
      [
       14.75,
       46.641
      ],
      [
       14.5,
       46.641
      ],
      [
       14.25,
       46.611
      ],
      [
       14.0,
       46.571
      ],
      [
       13.75,
       46.551
      ],
      [
       13.5,
       46.541
      ],
      [
       13.25,
       46.521
      ],
      [
       13.0,
       46.511
      ],
      [
       12.75,
       46.471
      ],
      [
       12.5,
       46.471
      ],
      [
       12.25,
       46.401
      ],
      [
       12.0,
       46.351
      ],
      [
       11.75,
       46.311
      ],
      [
       11.5,
       46.271
      ],
      [
       11.25,
       46.211
      ],
      [
       11.0,
       46.181
      ],
      [
       10.75,
       46.151
      ],
      [
       10.5,
       46.141
      ],
      [
       10.25,
       46.031
      ],
      [
       10.0,
       45.971
      ],
      [
       9.75,
       45.881
      ],
      [
       9.5,
       45.731
      ],
      [
       9.25,
       45.531
      ],
      [
       9.0,
       45.231
      ],
      [
       8.75,
       45.121
      ],
      [
       8.5,
       45.071
      ],
      [
       8.25,
       45.021
      ],
      [
       8.0,
       44.951
      ],
      [
       7.75,
       44.991
      ],
      [
       7.75,
       45.3957
      ]
     ]
    ],
    "type": "Polygon"
   },
   "id": "alps-europe-outer-necking-zone-plate-305",
   "properties": {
    "areaKm2": 25077.2,
    "birthIntervalMa": [
     180.0,
     165.0
    ],
    "collision": "alps",
    "correctionFeatureId": "alps-europe-outer-necking-zone-plate-305",
    "datumOffsetKm": [
     -150.0,
     -105.0
    ],
    "margin": "europe",
    "plateId": 305,
    "restoredWidthKm": 45.0,
    "surfaceEvidence": "unknown",
    "validTimeMa": {
     "oldest": 180.0,
     "youngest": 32.0,
     "youngestExclusive": true
    }
   },
   "type": "Feature"
  },
  {
   "geometry": {
    "coordinates": [
     [
      [
       7.75,
       45.8004
      ],
      [
       8.0,
       45.7604
      ],
      [
       8.25,
       45.8304
      ],
      [
       8.5,
       45.8804
      ],
      [
       8.75,
       45.9304
      ],
      [
       9.0,
       46.0404
      ],
      [
       9.25,
       46.3404
      ],
      [
       9.5,
       46.5404
      ],
      [
       9.75,
       46.6904
      ],
      [
       10.0,
       46.7804
      ],
      [
       10.25,
       46.8404
      ],
      [
       10.5,
       46.9504
      ],
      [
       10.75,
       46.9604
      ],
      [
       11.0,
       46.9904
      ],
      [
       11.25,
       47.0204
      ],
      [
       11.5,
       47.0804
      ],
      [
       11.75,
       47.1204
      ],
      [
       12.0,
       47.1604
      ],
      [
       12.25,
       47.2104
      ],
      [
       12.5,
       47.2804
      ],
      [
       12.75,
       47.2804
      ],
      [
       13.0,
       47.3204
      ],
      [
       13.25,
       47.3304
      ],
      [
       13.5,
       47.3504
      ],
      [
       13.75,
       47.3604
      ],
      [
       14.0,
       47.3804
      ],
      [
       14.25,
       47.4204
      ],
      [
       14.5,
       47.4504
      ],
      [
       14.75,
       47.4504
      ],
      [
       15.0,
       47.4504
      ],
      [
       15.0,
       47.0457
      ],
      [
       14.75,
       47.0457
      ],
      [
       14.5,
       47.0457
      ],
      [
       14.25,
       47.0157
      ],
      [
       14.0,
       46.9757
      ],
      [
       13.75,
       46.9557
      ],
      [
       13.5,
       46.9457
      ],
      [
       13.25,
       46.9257
      ],
      [
       13.0,
       46.9157
      ],
      [
       12.75,
       46.8757
      ],
      [
       12.5,
       46.8757
      ],
      [
       12.25,
       46.8057
      ],
      [
       12.0,
       46.7557
      ],
      [
       11.75,
       46.7157
      ],
      [
       11.5,
       46.6757
      ],
      [
       11.25,
       46.6157
      ],
      [
       11.0,
       46.5857
      ],
      [
       10.75,
       46.5557
      ],
      [
       10.5,
       46.5457
      ],
      [
       10.25,
       46.4357
      ],
      [
       10.0,
       46.3757
      ],
      [
       9.75,
       46.2857
      ],
      [
       9.5,
       46.1357
      ],
      [
       9.25,
       45.9357
      ],
      [
       9.0,
       45.6357
      ],
      [
       8.75,
       45.5257
      ],
      [
       8.5,
       45.4757
      ],
      [
       8.25,
       45.4257
      ],
      [
       8.0,
       45.3557
      ],
      [
       7.75,
       45.3957
      ],
      [
       7.75,
       45.8004
      ]
     ]
    ],
    "type": "Polygon"
   },
   "id": "alps-europe-inner-necking-zone-plate-305",
   "properties": {
    "areaKm2": 24891.4,
    "birthIntervalMa": [
     180.0,
     165.0
    ],
    "collision": "alps",
    "correctionFeatureId": "alps-europe-inner-necking-zone-plate-305",
    "datumOffsetKm": [
     -105.0,
     -60.0
    ],
    "margin": "europe",
    "plateId": 305,
    "restoredWidthKm": 45.0,
    "surfaceEvidence": "unknown",
    "validTimeMa": {
     "oldest": 180.0,
     "youngest": 25.0,
     "youngestExclusive": true
    }
   },
   "type": "Feature"
  },
  {
   "geometry": {
    "coordinates": [
     [
      [
       7.75,
       46.34
      ],
      [
       8.0,
       46.3
      ],
      [
       8.25,
       46.37
      ],
      [
       8.5,
       46.42
      ],
      [
       8.75,
       46.47
      ],
      [
       9.0,
       46.58
      ],
      [
       9.25,
       46.88
      ],
      [
       9.5,
       47.08
      ],
      [
       9.75,
       47.23
      ],
      [
       10.0,
       47.32
      ],
      [
       10.25,
       47.38
      ],
      [
       10.5,
       47.49
      ],
      [
       10.75,
       47.5
      ],
      [
       11.0,
       47.53
      ],
      [
       11.25,
       47.56
      ],
      [
       11.5,
       47.62
      ],
      [
       11.75,
       47.66
      ],
      [
       12.0,
       47.7
      ],
      [
       12.25,
       47.75
      ],
      [
       12.5,
       47.82
      ],
      [
       12.75,
       47.82
      ],
      [
       13.0,
       47.86
      ],
      [
       13.25,
       47.87
      ],
      [
       13.5,
       47.89
      ],
      [
       13.75,
       47.9
      ],
      [
       14.0,
       47.92
      ],
      [
       14.25,
       47.96
      ],
      [
       14.5,
       47.99
      ],
      [
       14.75,
       47.99
      ],
      [
       15.0,
       47.99
      ],
      [
       15.0,
       47.4504
      ],
      [
       14.75,
       47.4504
      ],
      [
       14.5,
       47.4504
      ],
      [
       14.25,
       47.4204
      ],
      [
       14.0,
       47.3804
      ],
      [
       13.75,
       47.3604
      ],
      [
       13.5,
       47.3504
      ],
      [
       13.25,
       47.3304
      ],
      [
       13.0,
       47.3204
      ],
      [
       12.75,
       47.2804
      ],
      [
       12.5,
       47.2804
      ],
      [
       12.25,
       47.2104
      ],
      [
       12.0,
       47.1604
      ],
      [
       11.75,
       47.1204
      ],
      [
       11.5,
       47.0804
      ],
      [
       11.25,
       47.0204
      ],
      [
       11.0,
       46.9904
      ],
      [
       10.75,
       46.9604
      ],
      [
       10.5,
       46.9504
      ],
      [
       10.25,
       46.8404
      ],
      [
       10.0,
       46.7804
      ],
      [
       9.75,
       46.6904
      ],
      [
       9.5,
       46.5404
      ],
      [
       9.25,
       46.3404
      ],
      [
       9.0,
       46.0404
      ],
      [
       8.75,
       45.9304
      ],
      [
       8.5,
       45.8804
      ],
      [
       8.25,
       45.8304
      ],
      [
       8.0,
       45.7604
      ],
      [
       7.75,
       45.8004
      ],
      [
       7.75,
       46.34
      ]
     ]
    ],
    "type": "Polygon"
   },
   "id": "alps-europe-proximal-subducted-margin-plate-305",
   "properties": {
    "areaKm2": 32897.4,
    "birthIntervalMa": [
     200.0,
     180.0
    ],
    "collision": "alps",
    "correctionFeatureId": "alps-europe-proximal-subducted-margin-plate-305",
    "datumOffsetKm": [
     -60.0,
     0.0
    ],
    "margin": "europe",
    "plateId": 305,
    "restoredWidthKm": 60.0,
    "surfaceEvidence": "unknown",
    "validTimeMa": {
     "oldest": 200.0,
     "youngest": 10.0,
     "youngestExclusive": true
    }
   },
   "type": "Feature"
  }
 ],
 "type": "FeatureCollection"
}
