{"features":[{"geometry":{"coordinates":[[[-77.44834,8.565869],[-77.436866,8.582229],[-77.393066,8.644678],[-77.391831,8.645571],[-77.374219,8.658301],[-77.344141,8.636719],[-77.261572,8.493701],[-77.130127,8.400586],[-77.019546,8.280055],[-77.063853,8.172871],[-77.1372,7.9176],[-77.354289,7.718531],[-77.362744,7.749072],[-77.345605,7.836523],[-77.282959,7.908154],[-77.259564,7.916663],[-77.215967,7.93252],[-77.198492,7.967468],[-77.195996,7.972461],[-77.201165,7.991928],[-77.212305,8.033887],[-77.23458,8.082413],[-77.282617,8.187061],[-77.319408,8.235306],[-77.345508,8.269531],[-77.385889,8.35166],[-77.396702,8.389876],[-77.407275,8.427246],[-77.425315,8.445273],[-77.478516,8.498437],[-77.44834,8.565869]]],"type":"Polygon"},"id":"observed-land-omission-229-289","properties":{"coordinateFrame":"WGS84-reference-coordinates","correctionFeatureId":"observed-land-omission-229-289","geometryReferenceAgeMa":0,"plateId":229,"sourceClass":"natural-earth-observed-modern-land","sourceFeatureId":"GPlates-2d916a07-b2ba-4953-a1e8-49bedd5fac8e","sourceOrder":289,"surfaceClass":"land","validTimeMa":{"oldest":0,"youngest":0}},"type":"Feature"},{"geometry":{"coordinates":[[[7.056554,43.595218],[7.102261,43.603924],[6.864746,43.43833],[6.716602,43.373584],[6.687402,43.33457],[6.657227,43.26167],[6.570215,43.199072],[6.494043,43.169287],[6.305371,43.138721],[6.115918,43.072363],[6.030566,43.100977],[5.809473,43.0979],[5.671582,43.177832],[5.468133,43.216738],[5.632813,43.359749],[6.210451,43.431953],[7.054781,43.592778],[7.056554,43.595218]]],"type":"Polygon"},"id":"observed-land-omission-306-150","properties":{"coordinateFrame":"WGS84-reference-coordinates","correctionFeatureId":"observed-land-omission-306-150","geometryReferenceAgeMa":0,"plateId":306,"sourceClass":"natural-earth-observed-modern-land","sourceFeatureId":"GPlates-99ac3a99-8443-496f-b9fb-24e082021181","sourceOrder":150,"surfaceClass":"land","validTimeMa":{"oldest":0,"youngest":0}},"type":"Feature"},{"geometry":{"coordinates":[[[43.319839,13.461058],[43.391223,13.865567],[43.324131,14.404574],[43.236033,14.578208],[43.238515,14.902925],[43.283485,15.134328],[43.462607,15.688234],[44.65429,16.48633],[44.834739,16.72131],[44.774903,17.107641],[44.583744,17.347387],[44.371094,17.393177],[44.345243,17.413604],[44.108,17.601073],[43.968738,18.173669],[43.843321,18.757739],[43.778516,18.945998],[43.500896,19.241443],[43.724348,19.956987],[43.920513,20.517607],[44.455476,20.813066],[44.80177,20.095057],[45.081412,19.296081],[45.121361,18.616951],[45.321363,17.3631],[45.358487,17.130365],[45.209984,17.058644],[45.086768,16.999137],[45.059281,16.830895],[45.061326,16.152735],[44.487936,15.629475],[44.061106,15.403807],[43.778679,15.025321],[43.630368,14.296136],[43.76544,13.828231],[44.285464,13.689358],[44.95155,13.733136],[45.303808,13.908572],[45.523263,14.115825],[45.174207,13.650418],[44.279179,12.649331],[44.260352,12.644629],[44.111523,12.638672],[44.005859,12.607666],[43.929785,12.616504],[43.835352,12.674414],[43.634375,12.744482],[43.487598,12.698828],[43.475293,12.839014],[43.231934,13.26709],[43.277813,13.604513],[43.242889,13.256611],[43.276335,13.199056],[43.319839,13.461058]]],"type":"Polygon"},"id":"observed-land-omission-503-0","properties":{"coordinateFrame":"WGS84-reference-coordinates","correctionFeatureId":"observed-land-omission-503-0","geometryReferenceAgeMa":0,"plateId":503,"sourceClass":"natural-earth-observed-modern-land","sourceFeatureId":"GPlates-ab540888-8aac-44a4-ae8d-c0bd87b9a0b4","sourceOrder":0,"surfaceClass":"land","validTimeMa":{"oldest":0,"youngest":0}},"type":"Feature"},{"geometry":{"coordinates":[[[[9.592773,3.814307],[9.628125,3.87002],[9.739648,3.85293],[9.736133,3.880127],[9.639941,3.965332],[9.649219,4.00835],[9.688867,4.056396],[9.680165,4.065516],[9.727944,4.0975],[9.687283,4.03601],[9.723719,3.955839],[9.786667,3.962917],[9.786952,3.940187],[9.787472,3.898694],[9.781654,3.899021],[9.789028,3.892436],[9.8,3.891222],[9.795288,3.886844],[9.9569,3.7425],[9.9978,3.4805],[10.019512,3.263147],[9.94192,3.155494],[9.975417,3.079111],[9.82625,2.558306],[9.844556,2.3175],[9.8019,2.316958],[9.800781,2.304443],[9.821777,2.539258],[9.867578,2.734961],[9.885449,2.916553],[9.948438,3.079053],[9.915039,3.239648],[9.876172,3.309766],[9.67207,3.537598],[9.765723,3.623828],[9.642383,3.611768],[9.615918,3.696484],[9.556152,3.798047],[9.592773,3.814307]]],[[[8.577246,3.482373],[8.622754,3.57998],[8.637695,3.668848],[8.675879,3.735937],[8.735742,3.758301],[8.760449,3.754346],[8.910059,3.758203],[8.950684,3.705322],[8.946094,3.627539],[8.792188,3.400391],[8.763477,3.304639],[8.704004,3.223633],[8.652344,3.21709],[8.474902,3.264648],[8.444922,3.293506],[8.434277,3.332422],[8.451758,3.4229],[8.464648,3.450586],[8.549805,3.467627],[8.577246,3.482373]]],[[[9.113867,4.041064],[9.000098,4.091602],[8.977051,4.23042],[8.932031,4.290234],[8.913574,4.357812],[8.902832,4.435156],[8.918262,4.55376],[8.91579,4.534764],[8.962889,4.594167],[8.928308,4.516359],[9.6048,4.2175],[9.668987,4.076268],[9.600391,4.026904],[9.550586,4.028418],[9.511816,4.060645],[9.483691,4.066113],[9.500781,4.000732],[9.462012,3.942529],[9.425293,3.922314],[9.362305,3.925732],[9.310938,3.940381],[9.297363,3.972949],[9.249121,3.997852],[9.113867,4.041064]]],[[[7.565625,4.560937],[7.530762,4.655176],[7.517383,4.645459],[7.509473,4.594922],[7.459863,4.555225],[7.284375,4.547656],[7.206738,4.612061],[7.143848,4.684082],[7.076563,4.716162],[7.086914,4.68584],[7.16416,4.615576],[7.154688,4.514404],[7.013379,4.397314],[6.923242,4.390674],[6.867871,4.441113],[6.83916,4.523486],[6.824707,4.645264],[6.787598,4.724707],[6.767676,4.724707],[6.786035,4.652002],[6.792188,4.592627],[6.793066,4.469141],[6.860352,4.37334],[6.757031,4.343555],[6.715137,4.342432],[6.633008,4.340234],[6.617285,4.375781],[6.601562,4.455176],[6.57998,4.475977],[6.55459,4.341406],[6.5,4.331934],[6.462109,4.333154],[6.299805,4.303857],[6.263672,4.309424],[6.255957,4.334473],[6.275293,4.37168],[6.270996,4.432129],[6.214648,4.385498],[6.205566,4.292285],[6.17334,4.277393],[6.076563,4.290625],[5.970703,4.338574],[5.906445,4.387744],[5.798633,4.455957],[5.587793,4.647217],[5.553613,4.733203],[5.493262,4.83877],[5.448145,4.94585],[5.383301,5.129004],[5.403223,5.142285],[5.452148,5.126562],[5.475977,5.153857],[5.388281,5.173779],[5.37002,5.19502],[5.36416,5.259277],[5.367969,5.337744],[5.439258,5.365332],[5.500879,5.378613],[5.531836,5.426367],[5.549707,5.474219],[5.38584,5.401758],[5.232422,5.483789],[5.199219,5.533545],[5.21582,5.57168],[5.289062,5.57749],[5.393848,5.574512],[5.456641,5.611719],[5.418066,5.624707],[5.350293,5.623291],[5.325293,5.647949],[5.327344,5.70752],[5.305371,5.694336],[5.27627,5.641553],[5.172852,5.602734],[5.112402,5.641553],[5.10625,5.728125],[5.093066,5.76709],[5.04209,5.79751],[5.034454,5.807159],[5.098909,5.785765],[5.145417,5.814194],[5.171471,5.761679],[5.288,5.723],[5.308241,5.71527],[5.318901,5.7112],[5.3225,5.723778],[5.323005,5.709633],[5.5263,5.632],[5.6922,5.5138],[5.7836,5.425],[5.9049,5.3747],[6.0364,5.3745],[6.3443,5.2701],[6.4239,5.2344],[6.6301,5.2591],[6.7259,5.2895],[6.846868,5.303462],[6.987,5.2886],[7.0684,5.3128],[7.1588,5.3653],[7.2805,5.4449],[7.3791,5.5746],[7.4448,5.704],[7.6415,5.6637],[7.7828,5.6889],[7.7878,5.6284],[7.8282,5.4871],[7.8988,5.3964],[7.9672,5.3556],[8.1719,5.1181],[8.561043,4.803293],[8.57125,4.8175],[8.572754,4.799968],[8.585156,4.832812],[8.555859,4.755225],[8.54375,4.757812],[8.514844,4.724707],[8.431348,4.74624],[8.393652,4.81377],[8.34209,4.824756],[8.252734,4.923975],[8.233789,4.907471],[8.328027,4.656104],[8.293066,4.557617],[8.028516,4.555371],[7.800781,4.522266],[7.644238,4.525342],[7.565625,4.560937]]]],"type":"MultiPolygon"},"id":"observed-land-omission-701-439","properties":{"coordinateFrame":"WGS84-reference-coordinates","correctionFeatureId":"observed-land-omission-701-439","geometryReferenceAgeMa":0,"plateId":701,"sourceClass":"natural-earth-observed-modern-land","sourceFeatureId":"GPlates-3bd5b2a6-df84-4d7f-b736-b1bdf6cd2f54","sourceOrder":439,"surfaceClass":"land","validTimeMa":{"oldest":0,"youngest":0}},"type":"Feature"},{"geometry":{"coordinates":[[[39.858984,-5.155176],[39.853027,-5.255469],[39.795898,-5.394434],[39.749316,-5.443848],[39.707617,-5.429492],[39.673438,-5.406641],[39.646777,-5.368555],[39.701074,-5.113672],[39.673438,-4.927051],[39.780762,-4.944922],[39.865039,-4.906152],[39.870996,-4.956543],[39.855664,-5.004004],[39.858984,-5.155176]]],"type":"Polygon"},"id":"observed-land-omission-701-1035","properties":{"coordinateFrame":"WGS84-reference-coordinates","correctionFeatureId":"observed-land-omission-701-1035","geometryReferenceAgeMa":0,"plateId":701,"sourceClass":"natural-earth-observed-modern-land","sourceFeatureId":"GPlates-d2d52c0d-da9f-481c-817b-974cd50a791d","sourceOrder":1035,"surfaceClass":"land","validTimeMa":{"oldest":0,"youngest":0}},"type":"Feature"},{"geometry":{"coordinates":[[[57.524805,-20.513184],[57.383301,-20.503711],[57.32832,-20.45],[57.317676,-20.427637],[57.365137,-20.406445],[57.362109,-20.337598],[57.385742,-20.228613],[57.416016,-20.183789],[57.486426,-20.143945],[57.515039,-20.055957],[57.575781,-19.997168],[57.656543,-19.989941],[57.737207,-20.098438],[57.791992,-20.212598],[57.780664,-20.326953],[57.725,-20.368848],[57.706641,-20.434863],[57.65127,-20.484863],[57.524805,-20.513184]]],"type":"Polygon"},"id":"observed-land-omission-704-1022","properties":{"coordinateFrame":"WGS84-reference-coordinates","correctionFeatureId":"observed-land-omission-704-1022","geometryReferenceAgeMa":0,"plateId":704,"sourceClass":"natural-earth-observed-modern-land","sourceFeatureId":"GPlates-0456b246-6676-4f0e-85a6-745ae202eee7","sourceOrder":1022,"surfaceClass":"land","validTimeMa":{"oldest":0,"youngest":0}},"type":"Feature"},{"geometry":{"coordinates":[[[55.232813,-21.058398],[55.25,-21.002441],[55.311328,-20.904102],[55.450488,-20.865137],[55.596484,-20.87959],[55.661914,-20.90625],[55.73916,-21.021484],[55.839063,-21.138574],[55.822461,-21.277832],[55.797363,-21.339355],[55.656152,-21.369043],[55.557617,-21.358301],[55.362695,-21.273633],[55.310352,-21.217383],[55.232813,-21.058398]]],"type":"Polygon"},"id":"observed-land-omission-704-1026","properties":{"coordinateFrame":"WGS84-reference-coordinates","correctionFeatureId":"observed-land-omission-704-1026","geometryReferenceAgeMa":0,"plateId":704,"sourceClass":"natural-earth-observed-modern-land","sourceFeatureId":"GPlates-dd237dc0-3daa-4e0f-a04d-96e1cd449f50","sourceOrder":1026,"surfaceClass":"land","validTimeMa":{"oldest":0,"youngest":0}},"type":"Feature"},{"geometry":{"coordinates":[[[53.403906,12.63335],[53.430957,12.663574],[53.534961,12.715771],[53.638477,12.707373],[53.763184,12.636816],[53.824805,12.624805],[53.918555,12.659424],[54.187402,12.664014],[54.511133,12.552783],[54.45,12.523438],[54.41377,12.483301],[54.271289,12.446631],[54.129492,12.360645],[53.718848,12.318994],[53.59834,12.342285],[53.499414,12.425342],[53.31582,12.533154],[53.388477,12.601855],[53.403906,12.63335]]],"type":"Polygon"},"id":"observed-land-omission-709-545","properties":{"coordinateFrame":"WGS84-reference-coordinates","correctionFeatureId":"observed-land-omission-709-545","geometryReferenceAgeMa":0,"plateId":709,"sourceClass":"natural-earth-observed-modern-land","sourceFeatureId":"GPlates-c8a38b13-ecf5-4a81-8685-014f2ec98984","sourceOrder":545,"surfaceClass":"land","validTimeMa":{"oldest":0,"youngest":0}},"type":"Feature"},{"geometry":{"coordinates":[[[[-15.655762,27.758398],[-15.710303,27.784082],[-15.807324,27.887549],[-15.809473,27.994482],[-15.720947,28.06416],[-15.682764,28.154053],[-15.452783,28.136914],[-15.432715,28.154248],[-15.415479,28.159326],[-15.400586,28.147363],[-15.406689,28.070508],[-15.383154,27.992822],[-15.38916,27.874707],[-15.436768,27.810693],[-15.559375,27.746973],[-15.655762,27.758398]]],[[[-16.843066,28.376123],[-16.752051,28.369824],[-16.556836,28.400488],[-16.517432,28.412695],[-16.318994,28.558203],[-16.123633,28.575977],[-16.119141,28.528271],[-16.334473,28.379932],[-16.418213,28.151416],[-16.49624,28.061914],[-16.542773,28.03208],[-16.658008,28.007178],[-16.794727,28.14917],[-16.866016,28.293262],[-16.905322,28.3396],[-16.843066,28.376123]]],[[[-14.003369,28.706689],[-13.95415,28.741455],[-13.886279,28.744678],[-13.857227,28.738037],[-13.827148,28.691211],[-13.827588,28.585156],[-13.862988,28.409326],[-13.928027,28.253467],[-14.196777,28.169287],[-14.332617,28.056006],[-14.468604,28.082373],[-14.491797,28.100928],[-14.355566,28.129687],[-14.231982,28.21582],[-14.152588,28.406641],[-14.028369,28.617432],[-14.003369,28.706689]]]],"type":"MultiPolygon"},"id":"observed-land-omission-714-230","properties":{"coordinateFrame":"WGS84-reference-coordinates","correctionFeatureId":"observed-land-omission-714-230","geometryReferenceAgeMa":0,"plateId":714,"sourceClass":"natural-earth-observed-modern-land","sourceFeatureId":"GPlates-f1e43feb-fc2e-4b5f-8277-42a2815a3454","sourceOrder":230,"surfaceClass":"land","validTimeMa":{"oldest":0,"youngest":0}},"type":"Feature"},{"geometry":{"coordinates":[[[-17.079395,14.483057],[-17.168066,14.640625],[-17.260645,14.701074],[-17.345801,14.729297],[-17.418457,14.723486],[-17.44502,14.651611],[-17.535645,14.755127],[-17.411816,14.792187],[-17.147168,14.922021],[-16.843408,15.293994],[-16.570752,15.734424],[-16.535254,15.838379],[-16.535742,16.286816],[-16.481299,16.454248],[-16.463623,16.601514],[-16.34668,16.926416],[-16.308202,16.999984],[-16.338308,16.914884],[-16.2449,16.7427],[-16.229827,16.533349],[-16.168359,16.54707],[-16.239014,16.531299],[-16.229827,16.533349],[-16.2051,16.1899],[-16.1578,15.8998],[-16.1104,15.5828],[-16.1177,15.2739],[-16.1884,14.9289],[-16.2412,14.6365],[-16.2671,14.4148],[-16.3113,14.1928],[-16.3202,14.1661],[-16.5285,14.0051],[-16.63257,14.018286],[-16.618115,14.040527],[-16.66748,14.035596],[-16.742139,14.005811],[-16.691994,14.025816],[-16.781863,14.037203],[-16.778493,14.004594],[-16.791748,14.00415],[-16.797754,14.093262],[-16.880518,14.20835],[-16.973828,14.403223],[-17.079395,14.483057]]],"type":"Polygon"},"id":"observed-land-omission-714-236","properties":{"coordinateFrame":"WGS84-reference-coordinates","correctionFeatureId":"observed-land-omission-714-236","geometryReferenceAgeMa":0,"plateId":714,"sourceClass":"natural-earth-observed-modern-land","sourceFeatureId":"GPlates-65cf358f-346c-444f-95fb-ecac00ec9ee9","sourceOrder":236,"surfaceClass":"land","validTimeMa":{"oldest":0,"youngest":0}},"type":"Feature"},{"geometry":{"coordinates":[[[69.534961,-48.974316],[69.592773,-48.970996],[69.587305,-49.071973],[69.644043,-49.117383],[69.572266,-49.129004],[69.43623,-49.124023],[69.405078,-49.181738],[69.542383,-49.255664],[69.610742,-49.26582],[69.666602,-49.264941],[69.770703,-49.248145],[69.854395,-49.221582],[69.983984,-49.159863],[70.061328,-49.136035],[70.208398,-49.134961],[70.284961,-49.076465],[70.320215,-49.058594],[70.40625,-49.061133],[70.484277,-49.083887],[70.530859,-49.136914],[70.555469,-49.201465],[70.536816,-49.265527],[70.485059,-49.327637],[70.389844,-49.365625],[70.411426,-49.410938],[70.386133,-49.433984],[70.338379,-49.435254],[70.297656,-49.424805],[70.237793,-49.371582],[70.16582,-49.342969],[69.993164,-49.344922],[69.915625,-49.348535],[69.902148,-49.389258],[69.861133,-49.420508],[69.818359,-49.437695],[69.759961,-49.430176],[69.749219,-49.447559],[69.780273,-49.490137],[69.855957,-49.544043],[69.986426,-49.581641],[70.062891,-49.589355],[70.073438,-49.517773],[70.16582,-49.509375],[70.247754,-49.530664],[70.307129,-49.583496],[70.258789,-49.600781],[70.216211,-49.628809],[70.207422,-49.665039],[70.124316,-49.704395],[70.075098,-49.708594],[69.918945,-49.689355],[69.826074,-49.644922],[69.803906,-49.613574],[69.74668,-49.601758],[69.682031,-49.642188],[69.612891,-49.650977],[69.477637,-49.617383],[69.352734,-49.563184],[69.274609,-49.542773],[69.153125,-49.529687],[69.085938,-49.65293],[68.992969,-49.70498],[68.872656,-49.709863],[68.814746,-49.699609],[68.782813,-49.65127],[68.791211,-49.599609],[68.810547,-49.550195],[68.84834,-49.499609],[68.87207,-49.444336],[68.861914,-49.392188],[68.818457,-49.353906],[68.841406,-49.285352],[68.798828,-49.231641],[68.813574,-49.19209],[68.883398,-49.164941],[68.853809,-49.141309],[68.816699,-49.135059],[68.790137,-49.103711],[68.769531,-49.065918],[68.796582,-48.994727],[68.836914,-48.926172],[68.832031,-48.84873],[68.900293,-48.775586],[68.958691,-48.693848],[69.002441,-48.66123],[69.057227,-48.656445],[69.08125,-48.679297],[69.093066,-48.723926],[69.071582,-48.752832],[69.122754,-48.766016],[69.136133,-48.861035],[69.104102,-48.899902],[69.099414,-48.937598],[69.032715,-49.017578],[69.052148,-49.081934],[69.184863,-49.10957],[69.265137,-49.11543],[69.314258,-49.10625],[69.534961,-48.974316]]],"type":"Polygon"},"id":"observed-land-omission-802-1409","properties":{"coordinateFrame":"WGS84-reference-coordinates","correctionFeatureId":"observed-land-omission-802-1409","geometryReferenceAgeMa":0,"plateId":802,"sourceClass":"natural-earth-observed-modern-land","sourceFeatureId":"GPlates-329f4e06-b5af-4781-a398-a2026c40bbb9","sourceOrder":1409,"surfaceClass":"land","validTimeMa":{"oldest":0,"youngest":0}},"type":"Feature"},{"geometry":{"coordinates":[[[150.528418,-9.346582],[150.669043,-9.428516],[150.746484,-9.404492],[150.788672,-9.417969],[150.879102,-9.512695],[150.884082,-9.581934],[150.898633,-9.641406],[150.894043,-9.66748],[150.844043,-9.702832],[150.848242,-9.662598],[150.809961,-9.654785],[150.67832,-9.656543],[150.57627,-9.631152],[150.43623,-9.624609],[150.495313,-9.561719],[150.508496,-9.536133],[150.434668,-9.434961],[150.431445,-9.386621],[150.437305,-9.359961],[150.498926,-9.345605],[150.528418,-9.346582]]],"type":"Polygon"},"id":"observed-land-omission-836-572","properties":{"coordinateFrame":"WGS84-reference-coordinates","correctionFeatureId":"observed-land-omission-836-572","geometryReferenceAgeMa":0,"plateId":836,"sourceClass":"natural-earth-observed-modern-land","sourceFeatureId":"GPlates-ab782c49-40cf-4662-ab78-6d3cbf07e970","sourceOrder":572,"surfaceClass":"land","validTimeMa":{"oldest":0,"youngest":0}},"type":"Feature"},{"geometry":{"coordinates":[[[-91.458301,-0.799512],[-91.334082,-0.70625],[-91.144678,-0.622852],[-91.120947,-0.559082],[-91.197021,-0.496973],[-91.249512,-0.373633],[-91.369189,-0.287207],[-91.428857,-0.023389],[-91.468701,-0.010303],[-91.55,-0.04668],[-91.590088,-0.014795],[-91.596826,0.0021],[-91.50918,0.062256],[-91.491016,0.105176],[-91.361377,0.12583],[-91.305762,0.091406],[-91.272168,0.025146],[-91.210059,-0.039307],[-91.176221,-0.223047],[-90.975537,-0.416895],[-90.950635,-0.525195],[-90.968457,-0.575586],[-90.958936,-0.595313],[-90.862549,-0.671777],[-90.799658,-0.752051],[-90.905518,-0.940527],[-91.131055,-1.019629],[-91.371533,-1.016992],[-91.419043,-0.99668],[-91.483545,-0.924609],[-91.49541,-0.860938],[-91.458301,-0.799512]]],"type":"Polygon"},"id":"observed-land-omission-911-1246","properties":{"coordinateFrame":"WGS84-reference-coordinates","correctionFeatureId":"observed-land-omission-911-1246","geometryReferenceAgeMa":0,"plateId":911,"sourceClass":"natural-earth-observed-modern-land","sourceFeatureId":"GPlates-e28aafd5-4156-4754-8a25-f7d5080fe556","sourceOrder":1246,"surfaceClass":"land","validTimeMa":{"oldest":0,"youngest":0}},"type":"Feature"}],"type":"FeatureCollection"}
